NORAD_CAT_ID,OBJECT_NAME,OBJECT_TYPE,EPOCH,MEAN_MOTION,ECCENTRICITY,INCLINATION,RA_OF_ASC_NODE,ARG_OF_PERICENTER,MEAN_ANOMALY,BSTAR,MEAN_MOTION_DOT,MEAN_MOTION_DDOT,TLE_LINE0,TLE_LINE1,TLE_LINE2,SEMIMAJOR_AXIS,PERIOD,APOGEE,PERIGEE,DECAYED
51749.0,STARLINK-3451,PAYLOAD,2022-09-26 05:41:15,15.08837985,0.0001759,53.219,217.5195,62.4213,297.6958,-6.4934e-05,-1.321e-05,0.0,0 STARLINK-3451,1 51749U 22016AM  22269.23698543 -.00001321  00000-0 -64934-4 0  9997,2 51749  53.2190 217.5195 0001759  62.4213 297.6958 15.08837985 33273,6917.887,95.438,540.9680000000002,538.535,0.0
51749.0,STARLINK-3451,PAYLOAD,2022-09-27 03:56:40,15.08838979,0.0001708,53.2196,213.3566,63.5699,296.5468,-1.0696e-05,-4.58e-06,0.0,0 STARLINK-3451,1 51749U 22016AM  22270.16435354 -.00000458  00000-0 -10696-4 0  9996,2 51749  53.2196 213.3566 0001708  63.5699 296.5468 15.08838979 34526,6917.884,95.438,540.93,538.567,0.0
51749.0,STARLINK-3451,PAYLOAD,2022-09-27 13:28:58,15.08841619,0.0001467,53.2181,211.5715,54.8341,305.2789,0.00018782,2.703e-05,0.0,0 STARLINK-3451,1 51749U 22016AM  22270.56178698  .00002703  00000-0  18782-3 0  9991,2 51749  53.2181 211.5715 0001467  54.8341 305.2789 15.08841619 33477,6917.875,95.437,540.755,538.726,0.0
51749.0,STARLINK-3451,PAYLOAD,2022-09-28 03:47:26,15.08845227,0.0001869,53.2184,208.8941,54.7404,305.3763,0.0002072,3.011e-05,0.0,0 STARLINK-3451,1 51749U 22016AM  22271.15794712  .00003011  00000-0  20720-3 0  9996,2 51749  53.2184 208.8941 0001869  54.7404 305.3763 15.08845227 34670,6917.864000000001,95.437,541.0219999999998,538.436,0.0
51749.0,STARLINK-3451,PAYLOAD,2022-09-28 06:58:12,15.08847349,0.0001710999999999,53.2184,208.3008,59.0079,301.1081,0.00022624,3.315e-05,0.0,0 STARLINK-3451,1 51749U 22016AM  22271.29042526  .00003315  00000-0  22624-3 0  9992,2 51749  53.2184 208.3008 0001711  59.0079 301.1081 15.08847349 33584,6917.858,95.437,540.9069999999998,538.539,0.0
51749.0,STARLINK-3451,PAYLOAD,2022-09-29 02:02:50,15.08842082,0.0001718,53.2195,204.732,59.7513,300.365,0.00010367,1.362e-05,0.0,0 STARLINK-3451,1 51749U 22016AM  22272.08530723  .00001362  00000-0  10367-3 0  9992,2 51749  53.2195 204.7320 0001718  59.7513 300.3650 15.08842082 34819,6917.874,95.437,540.928,538.5509999999998,0.0
51749.0,STARLINK-3451,PAYLOAD,2022-09-29 05:13:37,15.08834968,0.0001447,53.2186,204.1377,68.9255,291.1891,3.095e-05,2.05e-06,0.0,0 STARLINK-3451,1 51749U 22016AM  22272.21779215  .00000205  00000-0  30950-4 0  9994,2 51749  53.2186 204.1377 0001447  68.9255 291.1891 15.08834968 33726,6917.896,95.438,540.762,538.76,0.0
51749.0,STARLINK-3451,PAYLOAD,2022-09-30 01:53:36,15.088533800000002,0.0001685,53.2191,200.2718,53.1958,306.9189,8.6815e-06,-1.5e-06,0.0,0 STARLINK-3451,1 51749U 22016AM  22273.07889840 -.00000150  00000-0  86815-5 0  9997,2 51749  53.2191 200.2718 0001685  53.1958 306.9189 15.08853380 34969,6917.839,95.437,540.87,538.539,0.0
51749.0,STARLINK-3451,PAYLOAD,2022-09-30 05:04:23,15.08849129,0.0001740999999999,53.2193,199.6777,57.1627,302.9532,7.3935e-05,8.89e-06,0.0,0 STARLINK-3451,1 51749U 22016AM  22273.21137942  .00000889  00000-0  73935-4 0  9998,2 51749  53.2193 199.6777 0001741  57.1627 302.9532 15.08849129 33870,6917.852,95.437,540.922,538.513,0.0
51749.0,STARLINK-3451,PAYLOAD,2022-10-01 03:19:47,15.08841975,0.0001665,53.2184,195.514,54.5745,305.5403,0.0001519,2.13e-05,0.0,0 STARLINK-3451,1 51749U 22016AM  22274.13874179  .00002130  00000-0  15190-3 0  9999,2 51749  53.2184 195.5140 0001665  54.5745 305.5403 15.08841975 34010,6917.874,95.437,540.891,538.5880000000002,0.0
51749.0,STARLINK-3451,PAYLOAD,2022-10-02 03:10:35,15.08794675,0.0001869,53.22,191.0515,57.1743,302.9429,0.00057704,8.896e-05,0.0,0 STARLINK-3451,1 51749U 22016AM  22275.13236017  .00008896  00000-0  57704-3 0  9995,2 51749  53.2200 191.0515 0001869  57.1743 302.9429 15.08794675 35271,6918.019,95.44,541.177,538.591,0.0
51749.0,STARLINK-3451,PAYLOAD,2022-10-02 11:07:31,15.08828519,0.0001703,53.2192,189.568,59.9322,300.1839,-4.6364e-06,-3.62e-06,0.0,0 STARLINK-3451,1 51749U 22016AM  22275.46355615 -.00000362  00000-0 -46364-5 0  9991,2 51749  53.2192 189.5680 0001703  59.9322 300.1839 15.08828519 34219,6917.915,95.438,540.9590000000002,538.602,0.0
51749.0,STARLINK-3451,PAYLOAD,2022-10-03 10:58:18,15.0884399,0.0001768,53.2192,185.1069,57.8142,302.3021,0.00010048,1.312e-05,0.0,0 STARLINK-3451,1 51749U 22016AM  22276.45715333  .00001312  00000-0  10048-3 0  9990,2 51749  53.2192 185.1069 0001768  57.8142 302.3021 15.08843990 35476,6917.868,95.437,540.956,538.51,0.0
51749.0,STARLINK-3451,PAYLOAD,2022-10-04 02:52:08,15.08854927,0.0001515,53.2178,182.1348,63.7501,296.3647,0.00038635,5.869e-05,0.0,0 STARLINK-3451,1 51749U 22016AM  22277.11954706  .00005869  00000-0  38635-3 0  9996,2 51749  53.2178 182.1348 0001515  63.7501 296.3647 15.08854927 35571,6917.835,95.437,540.748,538.6519999999998,0.0
51749.0,STARLINK-3451,PAYLOAD,2022-10-05 02:42:55,15.08848039,0.000127,53.219,177.6716,57.9255,302.1861,9.8339e-05,1.278e-05,0.0,0 STARLINK-3451,1 51749U 22016AM  22278.11314753  .00001278  00000-0  98339-4 0  9997,2 51749  53.2190 177.6716 0001270  57.9255 302.1861 15.08848039 35720,6917.856,95.437,540.599,538.842,0.0
51749.0,STARLINK-3451,PAYLOAD,2022-10-05 10:39:51,15.08845086,0.0001426999999999,53.2187,176.1865,54.5869,305.5256,2.8000000000000013e-05,1.58e-06,0.0,0 STARLINK-3451,1 51749U 22016AM  22278.44434856  .00000158  00000-0  28000-4 0  9994,2 51749  53.2187 176.1865 0001427  54.5869 305.5256 15.08845086 34669,6917.865,95.437,540.717,538.743,0.0
51749.0,STARLINK-3451,PAYLOAD,2022-10-06 02:33:43,15.0883883,0.0001781,53.2204,173.2082,69.65100000000001,290.4673,-6.2287e-05,-1.279e-05,0.0,0 STARLINK-3451,1 51749U 22016AM  22279.10675784 -.00001279  00000-0 -62287-4 0  9997,2 51749  53.2204 173.2082 0001781  69.6510 290.4673 15.08838830 34766,6917.884,95.438,540.981,538.5169999999998,0.0
51749.0,STARLINK-3451,PAYLOAD,2022-10-06 20:02:57,15.08838991,0.000112,53.2188,169.9393,77.7824,282.3294,9.2544e-05,1.185e-05,0.0,0 STARLINK-3451,1 51749U 22016AM  22279.83539062  .00001185  00000-0  92544-4 0  9998,2 51749  53.2188 169.9393 0001120  77.7824 282.3294 15.08838991 34878,6917.8830000000025,95.438,540.523,538.974,0.0
51749.0,STARLINK-3451,PAYLOAD,2022-10-07 02:24:30,15.08835729,0.0001382,53.2189,168.7516,65.5181,294.5955,8.114e-05,1.004e-05,0.0,0 STARLINK-3451,1 51749U 22016AM  22280.10035551  .00001004  00000-0  81140-4 0  9994,2 51749  53.2189 168.7516 0001382  65.5181 294.5955 15.08835729 34914,6917.893,95.438,540.714,538.802,0.0
51749.0,STARLINK-3451,PAYLOAD,2022-10-07 19:53:44,15.08841369,0.0001594,53.2187,165.4811,60.1808,299.9343,0.00022534,3.3e-05,0.0,0 STARLINK-3451,1 51749U 22016AM  22280.82899111  .00003300  00000-0  22534-3 0  9995,2 51749  53.2187 165.4811 0001594  60.1808 299.9343 15.08841369 36139,6917.876,95.437,540.844,538.638,0.0
51749.0,STARLINK-3451,PAYLOAD,2022-10-07 21:29:08,15.08837892,0.0001617,53.2181,165.1847,57.278,302.8368,0.00018943,2.728e-05,0.0,0 STARLINK-3451,1 51749U 22016AM  22280.89523751  .00002728  00000-0  18943-3 0  9998,2 51749  53.2181 165.1847 0001617  57.2780 302.8368 15.08837892 35036,6917.887,95.438,540.87,538.633,0.0
51749.0,STARLINK-3451,PAYLOAD,2022-10-08 02:15:17,15.08838154,0.0001478,53.218,164.2933,56.1597,303.9536,0.0001214,1.645e-05,0.0,0 STARLINK-3451,1 51749U 22016AM  22281.09395732  .00001645  00000-0  12140-3 0  9997,2 51749  53.2180 164.2933 0001478  56.1597 303.9536 15.08838154 35064,6917.886,95.438,540.773,538.729,0.0
51749.0,STARLINK-3451,PAYLOAD,2022-10-08 19:44:33,15.08826629,0.0001628,53.218,161.0223,55.3301,304.7845,1.935e-05,2e-07,0.0,0 STARLINK-3451,1 51749U 22016AM  22281.82260642  .00000020  00000-0  19350-4 0  9996,2 51749  53.2180 161.0223 0001628  55.3301 304.7845 15.08826629 36283,6917.920999999999,95.438,540.9119999999998,538.66,0.0
51749.0,STARLINK-3451,PAYLOAD,2022-10-09 02:06:05,15.08834414,0.0001571999999999,53.2188,159.8321,55.5342,304.5799,7.6929e-05,9.36e-06,0.0,0 STARLINK-3451,1 51749U 22016AM  22282.08756249  .00000936  00000-0  76929-4 0  9999,2 51749  53.2188 159.8321 0001572  55.5342 304.5799 15.08834414 36322,6917.897,95.438,540.85,538.675,0.0
51749.0,STARLINK-3451,PAYLOAD,2022-10-09 08:27:38,15.08832646,0.0001661,53.2188,158.6426,55.9756,304.1394,5.0161e-05,5.1e-06,0.0,0 STARLINK-3451,1 51749U 22016AM  22282.35252533  .00000510  00000-0  50161-4 0  9994,2 51749  53.2188 158.6426 0001661  55.9756 304.1394 15.08832646 35250,6917.903,95.438,540.9169999999998,538.619,0.0
51749.0,STARLINK-3451,PAYLOAD,2022-10-09 19:35:19,15.08843198,0.0001598,53.2184,156.5599,51.5592,308.5544,0.00013434,1.851e-05,0.0,0 STARLINK-3451,1 51749U 22016AM  22282.81619529  .00001851  00000-0  13434-3 0  9997,2 51749  53.2184 156.5599 0001598  51.5592 308.5544 15.08843198 36433,6917.871,95.437,540.841,538.63,0.0
51749.0,STARLINK-3451,PAYLOAD,2022-10-09 21:10:42,15.08841647,0.0001626999999999,53.2189,156.2629,49.5552,310.5582,0.00014009,1.942e-05,0.0,0 STARLINK-3451,1 51749U 22016AM  22282.88243587  .00001942  00000-0  14009-3 0  9991,2 51749  53.2189 156.2629 0001627  49.5552 310.5582 15.08841647 35335,6917.875,95.437,540.866,538.615,0.0
51749.0,STARLINK-3451,PAYLOAD,2022-10-10 08:18:24,15.08839144,0.0001610999999999,53.2187,154.18200000000004,52.8294,307.2845,8.089e-05,1e-05,0.0,0 STARLINK-3451,1 51749U 22016AM  22283.34611942  .00001000  00000-0  80890-4 0  9994,2 51749  53.2187 154.1820 0001611  52.8294 307.2845 15.08839144 36511,6917.8830000000025,95.438,540.862,538.634,0.0
51749.0,STARLINK-3451,PAYLOAD,2022-10-11 00:12:16,15.08835691,0.0001629999999999,53.2187,151.209,53.9831,306.1312,4.167600000000001e-05,3.75e-06,0.0,0 STARLINK-3451,1 51749U 22016AM  22284.00852520  .00000375  00000-0  41676-4 0  9990,2 51749  53.2187 151.2090 0001630  53.9831 306.1312 15.08835691 35506,6917.894,95.438,540.886,538.631,0.0
